
    END TwoLineElement


    Begin TwoLineElement

    Enabled             Yes

    Source              OnlineAGI
    LastUpdated         30 Jun 2016 13:01:11.000

    SwitchMethod        Epoch
    SwitchEpoch         19 Jun 2016 15:53:23.398

    TLE
    1 40697U 15028A   16171.66207637  .00000006  00000-0  18982-4 0  9993
    2 40697  98.5680 245.8411 0001297  94.7189 265.4149 14.30821746 51852

    END TwoLineElement


    Begin TwoLineElement

    Enabled             Yes

    Source              OnlineAGI
    LastUpdated         30 Jun 2016 13:01:11.000

    SwitchMethod        Epoch
    SwitchEpoch         20 Jun 2016 00:16:53.093

    TLE
    1 40697U 15028A   16172.01172561  .00000020  00000-0  24184-4 0  9997
    2 40697  98.5681 246.1856 0001327  95.6166 264.5153 14.30821641 51904

    END TwoLineElement


    Begin TwoLineElement

    Enabled             Yes

    Source              OnlineAGI
    LastUpdated         30 Jun 2016 13:01:11.000

    SwitchMethod        Epoch
    SwitchEpoch         20 Jun 2016 20:25:16.390

    TLE
    1 40697U 15028A   16172.85088414 -.00000017  00000-0  99922-5 0  9992
    2 40697  98.5680 247.0128 0001319  93.6129 266.5184 14.30821535 52025

    END TwoLineElement


    Begin TwoLineElement

    Enabled             Yes

    Source              OnlineAGI
    LastUpdated         30 Jun 2016 13:01:11.000

    SwitchMethod        Epoch
    SwitchEpoch         21 Jun 2016 04:48:46.136

    TLE
    1 40697U 15028A   16173.20053398  .00000016  00000-0  22644-4 0  9999
    2 40697  98.5681 247.3571 0001304  92.5456 267.5890 14.30821799 52078

    END TwoLineElement


    Begin TwoLineElement

    Enabled             Yes

    Source              OnlineAGI
    LastUpdated         30 Jun 2016 13:01:11.000

    SwitchMethod        Epoch
    SwitchEpoch         21 Jun 2016 16:33:39.690

    TLE
    1 40697U 15028A   16173.69004271 -.00000021  00000-0  85708-5 0  9996
    2 40697  98.5680 247.8400 0001324  94.7794 265.3544 14.30821761 52143

    END TwoLineElement


    Begin TwoLineElement

    Enabled             Yes

    Source              OnlineAGI
    LastUpdated         30 Jun 2016 13:01:11.000

    SwitchMethod        Epoch
    SwitchEpoch         22 Jun 2016 07:39:57.181

    TLE
    1 40697U 15028A   16174.31941182 -.00000007  00000-0  14019-4 0  9997
    2 40697  98.5678 248.4602 0001266  87.8735 272.2606 14.30821890 52233

    END TwoLineElement


    Begin TwoLineElement

    Enabled             Yes

    Source              OnlineAGI
    LastUpdated         30 Jun 2016 13:01:11.000

    SwitchMethod        Epoch
    SwitchEpoch         22 Jun 2016 21:05:32.643

    TLE
    1 40697U 15028A   16174.87885004  .00000020  00000-0  24158-4 0  9997
    2 40697  98.5678 249.0115 0001321  87.6746 272.4562 14.30822007 52314

    END TwoLineElement


    Begin TwoLineElement

    Enabled             Yes

    Source              OnlineAGI
    LastUpdated         30 Jun 2016 13:01:11.000

    SwitchMethod        Epoch
    SwitchEpoch         23 Jun 2016 18:54:37.827

    TLE
    1 40697U 15028A   16175.78793781  .00000084  00000-0  48560-4 0  9991
    2 40697  98.5673 249.9079 0001265  89.0831 271.0491 14.30822592 52444

    END TwoLineElement


    Begin TwoLineElement

    Enabled             Yes

    Source              OnlineAGI
    LastUpdated         30 Jun 2016 13:01:11.000

    SwitchMethod        Epoch
    SwitchEpoch         24 Jun 2016 15:03:01.251

    TLE
    1 40697U 15028A   16176.62709781 -.00000406  00000-0 -13825-3 0  9997
    2 40697  98.5669 250.7348 0001256  92.7270 267.4014 14.30819696 52560

    END TwoLineElement


    Begin TwoLineElement

    Enabled             Yes

    Source              OnlineAGI
    LastUpdated         30 Jun 2016 13:01:11.000

    SwitchMethod        Epoch
    SwitchEpoch         24 Jun 2016 21:45:49.125

    TLE
    1 40697U 15028A   16176.90681858 -.00000798  00000-0 -28778-3 0  9999
    2 40697  98.5669 251.0106 0001166  91.4733 268.6479 14.30817087 52601

    END TwoLineElement


    Begin TwoLineElement

    Enabled             Yes

    Source              OnlineAGI
    LastUpdated         30 Jun 2016 13:01:11.000

    SwitchMethod        Epoch
    SwitchEpoch         25 Jun 2016 19:34:55.014

    TLE
    1 40697U 15028A   16177.81591451 -.00001404  00000-0 -51913-3 0  9991
    2 40697  98.5666 251.9066 0001215  89.4056 270.7242 14.30812456 52733

    END TwoLineElement


    Begin TwoLineElement

    Enabled             Yes

    Source              OnlineAGI
    LastUpdated         30 Jun 2016 13:01:11.000

    SwitchMethod        Epoch
    SwitchEpoch         26 Jun 2016 02:17:42.984

    TLE
    1 40697U 15028A   16178.09563639 -.00001522  00000-0 -56415-3 0  9992
    2 40697  98.5665 252.1823 0001218  89.3166 270.8152 14.30811280 52779

    END TwoLineElement


    Begin TwoLineElement

    Enabled             Yes

    Source              OnlineAGI
    LastUpdated         30 Jun 2016 13:01:11.000

    SwitchMethod        Epoch
    SwitchEpoch         26 Jun 2016 09:00:30.941

    TLE
    1 40697U 15028A   16178.37535811 -.00001448  00000-0 -53605-3 0  9999
    2 40697  98.5665 252.4579 0001218  88.4935 271.6423 14.30810992 52818

    END TwoLineElement


    Begin TwoLineElement

    Enabled             Yes

    Source              OnlineAGI
    LastUpdated         30 Jun 2016 13:01:11.000

    SwitchMethod        Epoch
    SwitchEpoch         26 Jun 2016 15:43:18.835

    TLE
    1 40697U 15028A   16178.65507911 -.00001397  00000-0 -51639-3 0  9998
    2 40697  98.5665 252.7341 0001273  95.0197 265.1170 14.30810685 52853

    END TwoLineElement


    Begin TwoLineElement

    Enabled             Yes

    Source              OnlineAGI
    LastUpdated         30 Jun 2016 13:01:11.000

    SwitchMethod        Epoch
    SwitchEpoch         27 Jun 2016 20:15:12.325

    TLE
    1 40697U 15028A   16179.84389265 -.00000562  00000-0 -19794-3 0  9999
    2 40697  98.5663 253.9058 0001253  87.1179 273.0166 14.30812510 53021

    END TwoLineElement


    Begin TwoLineElement

    Enabled             Yes

    Source              OnlineAGI
    LastUpdated         30 Jun 2016 13:01:11.000

    SwitchMethod        Epoch
    SwitchEpoch         28 Jun 2016 23:06:23.726

    TLE
    1 40697U 15028A   16180.96277461 -.00000000  00000-0  16490-4 0  9995
    2 40697  98.5663 255.0089 0001251  92.0915 268.0405 14.30814637 53188
